C/2025 K1 (ATLAS),h,10/08.4404/2025,147.8639,97.5574,271.0193,1.000252,0.334177,2000,12.2,4.0
# From MPEC 2026-A24
C/2025 K1-B,h,10/08.4523/2025,147.9164,97.6393,271.3197,1.001985,0.335725,2000,14.7,4.0
# From MPEC 2026-A24
C/2025 K1-C,e,147.8464,97.5293,270.9180,1500,0.0000170,0.99977757,0.0000,10/08.4391/2025,2000,g 14.0,4.0
# From MPEC 2025-XC1
C/2025 K1-D,h,10/08.4564/2025,147.9347,97.6703,271.4297,1.002519,0.336300,2000,14.0,4.0
# From MPC186633
C/2025 K2 (PANSTARRS),e,113.9794,113.8292,232.4625,25.29967,0.0077452,0.88681003,0.8651,02/14.0/2026,2000,g 13.7,4.0
# From MPC188413
C/2025 K3 (PANSTARRS),h,12/14.1965/2028,104.9362,350.6430,188.6004,1.001385,3.470129,2000,6.4,4.0
# From MPEC 2025-XC7
C/2025 K4 (Siverd),e,38.5445,297.0825,326.9262,43.36126,0.0034518,0.94160480,0.6930,02/14.0/2026,2000,g 14.1,4.0
# From MPEC 2026-A24
C/2025 L1 (ATLAS),h,01/12.7443/2026,114.1360,208.1091,341.2571,1.001397,1.679551,2000,11.4,4.0
# From MPEC 2025-XC7
C/2025 L2 (MAPS),e,86.5839,134.9862,232.6422,486.3724,0.0000919,0.99417391,0.0000,12/20.6620/2025,2000,g 11.7,4.0
# From MPC188414
C/2025 M1 (PANSTARRS),e,64.8918,66.9580,230.4021,5312,0.0000025,0.99796097,0.0000,08/02.8121/2029,2000,g  2.9,4.0
# From MPEC 2025-UQ3
C/2025 M2 (PANSTARRS),h,11/23.4614/2027,173.2151,305.5342,96.7581,1.001968,2.720600,2000,13.4,4.0
# From MPC188414
C/2025 M3 (PANSTARRS),h,07/05.1220/2026,137.4233,65.2658,195.3733,1.019359,6.531979,2000,9.0,4.0
# From MPEC 2025-YF1
C/2025 N2 (ATLAS),h,12/10.7350/2024,81.6649,94.4635,230.0104,1.001803,8.982842,2000,5.1,4.0
# From MPC188414
C/2025 O2 (MAPS),e,134.5445,332.3113,280.2509,2578,0.0000075,0.99911217,0.0000,05/23.7304/2025,2000,g 14.3,4.0
# From MPC188414
A/2025 P1,e,117.7963,342.4209,334.5251,56.79062,0.0023030,0.96168919,0.7380,02/14.0/2026,2000,g 17.1,4.0
# From MPEC 2025-XC7
C/2025 Q1 (ATLAS),e,66.1621,326.9443,280.2328,1287,0.0000213,0.99215474,0.0000,07/11.8963/2024,2000,g  3.8,4.0
# From MPEC 2026-A90
C/2025 Q3 (ATLAS),e,90.1855,233.1437,218.4557,788.9854,0.0000445,0.99732247,0.0000,02/25.6411/2026,2000,g 12.2,4.0
# From MPEC 2026-A24
C/2025 R1 (ATLAS),e,110.0272,60.3973,77.5524,166.4254,0.0004591,0.98813155,0.0000,11/23.3392/2025,2000,g 14.0,4.0
# From MPEC 2026-A90
C/2025 R2 (SWAN),e,4.4729,335.3240,308.3636,86.58257,0.0012234,0.99417738,0.0000,09/12.8429/2025,2000,g 12.4,4.0
# From MPEC 2026-A90
C/2025 R3 (PANSTARRS),h,04/19.8950/2026,124.7308,38.6935,162.2256,1.000347,0.498613,2000,12.2,4.0
# From MPEC 2026-A24
A/2025 S2,e,96.6422,34.4731,31.5895,63.22148,0.0019607,0.97332802,0.0000,01/02.4149/2026,2000,g 16.0,2.0
# From MPEC 2025-XC7
A/2025 S3,e,103.5629,36.7301,71.1271,215.8289,0.0003108,0.98960073,0.0000,06/25.0925/2026,2000,g 15.0,2.0
# From MPEC 2026-A24
C/2025 T1 (ATLAS),e,123.4328,140.4947,114.1408,10915,0.0000009,0.99989841,0.0000,12/02.3754/2025,2000,g 14.7,4.0
# From MPEC 2026-A24
P/2025 U1 (Hogan),e,23.8295,234.9415,264.0750,5.900585,0.0687640,0.29403731,357.2338,02/14.0/2026,2000,g 11.7,4.0
# From MPEC 2026-A24
P/2025 UX109 (Ye),e,3.1816,197.9684,276.1215,3.800159,0.1330459,0.32383115,24.4570,02/14.0/2026,2000,g 13.7,4.0
# From MPEC 2026-A24
C/2025 V1 (Borisov),h,11/16.5433/2025,112.7092,91.8739,47.5692,1.007737,0.462684,2000,16.3,4.0
# From MPEC 2026-A90
C/2025 V2 (Rankin),h,03/22.9903/2027,37.2851,138.0825,102.7169,1.000632,1.952388,2000,9.0,4.0
# From MPEC 2025-YF1
C/2025 W1 (Sankovich),e,79.8004,95.8911,250.6379,10425,0.0000009,0.99959998,0.0000,02/17.7396/2025,2000,g  9.7,4.0
# From MPEC 2026-A24
C/2025 W2 (ATLAS),e,94.7104,90.8447,41.0352,26.92902,0.0070530,0.94603269,0.4808,02/14.0/2026,2000,g 17.9,4.0
# From MPEC 2026-A24
P/2025 W3 (Kresken),e,9.7501,60.0684,311.3242,2.547272,0.2424327,0.18041621,81.0400,02/14.0/2026,2000,g 17.2,4.0
# From MPEC 2026-A90
P/2025 W4 (PANSTARRS),e,1.2980,237.1164,172.2899,2.579510,0.2379021,0.21134264,31.5221,02/14.0/2026,2000,g 17.5,4.0
# From MPEC 2026-A90
C/2025 X1 (PANSTARRS),e,36.9554,95.6352,85.6728,33.84370,0.0050060,0.86207873,358.4974,02/14.0/2026,2000,g 10.2,4.0
# From MPEC 2026-A90
A/2025 Y1,e,14.5517,166.5460,124.2379,1633,0.0000149,0.99840219,0.0000,10/15.0138/2027,2000,g  6.0,2.0
# From MPEC 2026-AC1
P/2025 Y2 (PANSTARRS),e,16.5921,177.4638,345.0475,4.001421,0.1231353,0.23884870,8.2880,02/14.0/2026,2000,g 13.3,4.0
# From MPEC 2026-BC8
C/2025 Y3 (PANSTARRS),h,01/13.7024/2026,89.5485,272.9665,219.3832,1.000651,2.227314,2000,17.0,4.0
# From MPEC 2026-BC9
C/2026 A1 (MAPS),e,144.5086,7.9481,86.5361,110.2462,0.0008514,0.99995053,0.0000,04/04.5644/2026,2000,g 15.6,4.0
# From MPEC 2026-BK2
P/2026 B1 (PANSTARRS),e,4.0214,104.6621,72.6964,3.665420,0.1404489,0.31462128,334.4911,02/14.0/2026,2000,g 15.7,4.0
# From MPEC 2026-BK5
C/2026 B2 (Sun-Gao),e,59.7014,234.6160,47.0061,37.89042,0.0042258,0.96628250,0.1488,02/14.0/2026,2000,g  9.7,4.0
# From MPEC 2025-W75
1P/Halley,e,162.1655,59.4624,112.3611,17.85812,0.0130602,0.96798207,190.7182,02/14.0/2026,2000,g  5.5,3.2
# From MPEC 2025-XC7
2P/Encke,e,11.3473,334.0181,187.2807,2.217968,0.2983810,0.84725102,252.2144,02/14.0/2026,2000,g 11.5,6.0
# From AJ 76, 1135
3D-A/Biela,e,7.2156,276.6829,192.1431,3.551736,0.1472459,0.76711965,64.6208,02/14.0/2026,2000,g 11.0,6.0
# From AJ 76, 1135
3D-B/Biela,e,7.8797,276.2013,192.2623,3.540729,0.1479330,0.76785601,34.1616,02/14.0/2026,2000,g 11.0,6.0
# From MPEC 2026-A90
4P/Faye,e,8.0000,192.8971,207.1593,3.830663,0.1314598,0.57601607,212.8654,02/14.0/2026,2000,g  8.0,6.0
# From MPEC 2025-W75
6P/d'Arrest,e,19.5036,138.9535,178.0338,3.497635,0.1506754,0.61218957,242.9021,02/14.0/2026,2000,g  7.5,16.0
# From MPEC 2026-A24
7P/Pons-Winnecke,e,22.0110,92.8412,174.0328,3.344709,0.1611263,0.66024843,270.2248,02/14.0/2026,2000,g 10.0,6.0
# From MPEC 2025-W75
8P/Tuttle,e,54.9903,270.1920,207.4710,5.706286,0.0723059,0.82073230,117.8578,02/14.0/2026,2000,g  8.0,8.0
# From MPEC 2025-YF1
9P/Tempel,e,10.5291,67.0439,184.5136,3.300200,0.1643969,0.46738466,240.5833,02/14.0/2026,2000,g  5.5,10.0
# From MPEC 2026-A24
10P/Tempel,e,12.0272,117.7979,195.4749,3.064629,0.1837119,0.53740650,328.9299,02/14.0/2026,2000,g  5.0,10.0
# From MPEC 2025-W75
11P/Tempel-Swift-LINEAR,e,14.4309,238.8569,168.0628,3.282704,0.1657129,0.57735318,315.4356,02/14.0/2026,2000,g 17.0,4.0
# From MPEC 2026-A24
12P/Pons-Brooks,e,74.1767,255.8608,199.0233,17.26049,0.0137444,0.95472308,9.1238,02/14.0/2026,2000,g  5.0,6.0
# From MPEC 2025-W75
13P/Olbers,e,44.6615,85.8451,64.4274,16.93471,0.0141429,0.93059741,8.3988,02/14.0/2026,2000,g  5.0,6.0
# From MPEC 2025-W75
14P/Wolf,e,27.9178,202.0130,159.2066,4.255756,0.1122636,0.35652490,335.6334,02/14.0/2026,2000,g  5.5,12.0
# From MPEC 2025-W75
15P/Finlay,e,6.7854,13.7332,347.8683,3.511609,0.1497769,0.71588771,251.2802,02/14.0/2026,2000,g 12.0,4.0
# From MPEC 2025-W75
16P/Brooks,e,3.0098,138.8128,245.3766,3.662764,0.1406018,0.48533356,247.9123,02/14.0/2026,2000,g  7.5,10.0
# From MPEC 2025-W75
17P/Holmes,e,19.0045,326.5991,24.5930,3.642481,0.1417778,0.42610172,258.3747,02/14.0/2026,2000,g 10.0,6.0
# From QJ 19, 80
18D-A/Perrine-Mrkos,e,17.663,158.450,238.179,3.87916,0.129002,0.5894231,68.879,02/14.0/2026,2000,g 16.0,4.0
# From MPEC 2025-W75
19P/Borrelly,e,29.3100,74.2157,352.0167,3.608698,0.1437733,0.63762065,211.7106,02/14.0/2026,2000,g  4.5,10.0
# From MPEC 2025-W75
21P/Giacobini-Zinner,e,32.0563,195.3005,172.9397,3.491022,0.1511037,0.71109946,49.2055,02/14.0/2026,2000,g  9.0,6.0
# From MPEC 2026-A24
22P/Kopff,e,5.0563,119.8768,163.8082,3.367167,0.1595171,0.57847033,222.5826,02/14.0/2026,2000,g  3.0,10.4
# From MPEC 2025-W75
23P/Brorsen-Metcalf,e,19.5018,311.0460,130.1129,16.94544,0.0141294,0.97252299,0.0000,06/23.5501/2059,2000,g  7.8,3.2
# From MPEC 2026-A90
24P/Schaumasse,e,11.5022,78.2705,58.4823,4.057597,0.1205870,0.70821582,4.4207,02/14.0/2026,2000,g  6.5,14.0
# From MPEC 2025-W75
26P/Grigg-Skjellerup,e,22.4446,211.5268,2.1118,3.013985,0.1883617,0.64077936,147.2331,02/14.0/2026,2000,g 12.0,16.0
# From MPEC 2025-W75
27P/Crommelin,e,29.4114,250.6887,195.8636,9.170920,0.0354883,0.91954994,188.3245,02/14.0/2026,2000,g 12.0,8.0
# From MPEC 2025-W75
28P/Neujmin,e,14.2880,346.4240,347.4233,6.978255,0.0534668,0.77244317,96.3850,02/14.0/2026,2000,g  8.5,6.0
# From MPEC 2026-A90
29P/Schwassmann-Wachmann,e,9.3551,312.4012,51.7606,6.057857,0.0661037,0.04297503,164.3550,02/14.0/2026,2000,g  4.0,4.0
# From MPEC 2025-W75
30P/Reinmuth,e,8.0536,117.2292,9.5458,3.736595,0.1364552,0.51445009,74.4640,02/14.0/2026,2000,g  9.5,6.0
# From MPEC 2025-W75
31P/Schwassmann-Wachmann,e,4.5497,114.1126,18.0096,4.229466,0.1133120,0.19365413,273.4149,02/14.0/2026,2000,g  5.0,8.0
# From MPEC 2025-W75
32P/ComasSola,e,9.9181,54.5330,54.7413,4.555940,0.1013531,0.55531259,67.3239,02/14.0/2026,2000,g  6.5,8.0
# From MPEC 2025-W75
33P/Daniel,e,22.2938,66.2800,20.2644,4.091381,0.1190965,0.45181158,54.8008,02/14.0/2026,2000,g 10.0,12.0
# From MPEC 2025-W75
36P/Whipple,e,9.9441,181.8134,201.1993,4.142191,0.1169119,0.26782217,243.6306,02/14.0/2026,2000,g  8.5,6.0
# From MPEC 2025-W75
37P/Forbes,e,8.9478,314.5431,330.0778,3.461656,0.1530306,0.53245863,75.1136,02/14.0/2026,2000,g 10.5,4.8
# From MPEC 2025-W75
38P/Stephan-Oterma,e,18.4079,77.8691,359.6166,11.27182,0.0260443,0.85964111,68.9907,02/14.0/2026,2000,g  3.5,12.0
# From MPEC 2025-W75
39P/Oterma,e,1.7331,289.0967,118.1156,6.964385,0.0536266,0.16528475,45.9378,02/14.0/2026,2000,g  7.0,6.0
# From MPEC 2026-A24
40P/Vaisala,e,11.6404,128.9007,52.0604,4.943971,0.0896582,0.63110730,8.4258,02/14.0/2026,2000,g  5.5,12.0
# From MPEC 2025-W75
41P/Tuttle-Giacobini-Kresak,e,9.2165,140.9763,62.2043,3.087524,0.1816722,0.65984733,227.0515,02/14.0/2026,2000,g 10.0,16.0
# From MPEC 2025-W75
42P/Neujmin,e,3.9884,150.1549,147.1226,4.879881,0.0914303,0.58407819,2.7491,02/14.0/2026,2000,g 13.0,6.0
# From MPEC 2026-A90
43P/Wolf-Harrington,e,9.3300,243.9743,223.7777,4.328995,0.1094267,0.43574256,21.1714,02/14.0/2026,2000,g  8.0,6.0
# From MPEC 2025-W75
44P/Reinmuth,e,5.8957,286.4187,57.9656,3.687864,0.1391687,0.42669919,194.0682,02/14.0/2026,2000,g  8.3,6.0
